CCSDS_OMM_VERS = 2.0
CREATION_DATE  = 
ORIGINATOR     = 

OBJECT_NAME    = SOYUZ-MS 28
OBJECT_ID      = 2025-275A
CENTER_NAME    = EARTH
REF_FRAME      = TEME
TIME_SYSTEM    = UTC
MEAN_ELEMENT_THEORY = SGP/SGP4

EPOCH          = 2026-01-01T05:02:47.308992
MEAN_MOTION    = 15.48996227
ECCENTRICITY   = .00075099
INCLINATION    = 51.6328
RA_OF_ASC_NODE = 46.0577
ARG_OF_PERICENTER = 326.8003
MEAN_ANOMALY   = 33.2513

EPHEMERIS_TYPE = 0
CLASSIFICATION_TYPE = U
NORAD_CAT_ID   = 66664
ELEMENT_SET_NO = 999
REV_AT_EPOCH   = 128
BSTAR          = .27653728E-3
MEAN_MOTION_DOT = .14823E-3
MEAN_MOTION_DDOT = 0

CCSDS_OMM_VERS = 2.0
CREATION_DATE  = 
ORIGINATOR     = 

OBJECT_NAME    = 1998-067XS
OBJECT_ID      = 1998-067XS
CENTER_NAME    = EARTH
REF_FRAME      = TEME
TIME_SYSTEM    = UTC
MEAN_ELEMENT_THEORY = SGP/SGP4

EPOCH          = 2026-01-01T07:33:54.945792
MEAN_MOTION    = 15.51733652
ECCENTRICITY   = .00025185
INCLINATION    = 51.6324
RA_OF_ASC_NODE = 45.2592
ARG_OF_PERICENTER = 305.8505
MEAN_ANOMALY   = 54.2250

EPHEMERIS_TYPE = 0
CLASSIFICATION_TYPE = U
NORAD_CAT_ID   = 66906
ELEMENT_SET_NO = 999
REV_AT_EPOCH   = 465
BSTAR          = .58983917E-3
MEAN_MOTION_DOT = .35503E-3
MEAN_MOTION_DDOT = 0

CCSDS_OMM_VERS = 2.0
CREATION_DATE  = 
ORIGINATOR     = 

OBJECT_NAME    = 1998-067XT
OBJECT_ID      = 1998-067XT
CENTER_NAME    = EARTH
REF_FRAME      = TEME
TIME_SYSTEM    = UTC
MEAN_ELEMENT_THEORY = SGP/SGP4

EPOCH          = 2026-01-01T07:01:05.766240
MEAN_MOTION    = 15.54217046
ECCENTRICITY   = .00038994
INCLINATION    = 51.6314
RA_OF_ASC_NODE = 45.1078
ARG_OF_PERICENTER = 348.6240
MEAN_ANOMALY   = 11.4662

EPHEMERIS_TYPE = 0
CLASSIFICATION_TYPE = U
NORAD_CAT_ID   = 66907
ELEMENT_SET_NO = 999
REV_AT_EPOCH   = 465
BSTAR          = .13400631E-2
MEAN_MOTION_DOT = .89542E-3
MEAN_MOTION_DDOT = 0

CCSDS_OMM_VERS = 2.0
CREATION_DATE  = 
ORIGINATOR     = 

OBJECT_NAME    = 1998-067XU
OBJECT_ID      = 1998-067XU
CENTER_NAME    = EARTH
REF_FRAME      = TEME
TIME_SYSTEM    = UTC
MEAN_ELEMENT_THEORY = SGP/SGP4

EPOCH          = 2026-01-01T06:59:29.130432
MEAN_MOTION    = 15.54176560
ECCENTRICITY   = .00039492
INCLINATION    = 51.6307
RA_OF_ASC_NODE = 45.0994
ARG_OF_PERICENTER = 344.5705
MEAN_ANOMALY   = 15.5165

EPHEMERIS_TYPE = 0
CLASSIFICATION_TYPE = U
NORAD_CAT_ID   = 66908
ELEMENT_SET_NO = 999
REV_AT_EPOCH   = 465
BSTAR          = .13299968E-2
MEAN_MOTION_DOT = .88726E-3
MEAN_MOTION_DDOT = 0

CCSDS_OMM_VERS = 2.0
CREATION_DATE  = 
ORIGINATOR     = 

OBJECT_NAME    = SILVERSAT
OBJECT_ID      = 1998-067XV
CENTER_NAME    = EARTH
REF_FRAME      = TEME
TIME_SYSTEM    = UTC
MEAN_ELEMENT_THEORY = SGP/SGP4

EPOCH          = 2026-01-01T06:54:41.662080
MEAN_MOTION    = 15.54666780
ECCENTRICITY   = .00040348
INCLINATION    = 51.6304
RA_OF_ASC_NODE = 45.0772
ARG_OF_PERICENTER = 351.8437
MEAN_ANOMALY   = 8.2488

EPHEMERIS_TYPE = 0
CLASSIFICATION_TYPE = U
NORAD_CAT_ID   = 66909
ELEMENT_SET_NO = 999
REV_AT_EPOCH   = 465
BSTAR          = .15186096E-2
MEAN_MOTION_DOT = .103409E-2
MEAN_MOTION_DDOT = 0

CCSDS_OMM_VERS = 2.0
CREATION_DATE  = 
ORIGINATOR     = 

OBJECT_NAME    = 1998-067XW
OBJECT_ID      = 1998-067XW
CENTER_NAME    = EARTH
REF_FRAME      = TEME
TIME_SYSTEM    = UTC
MEAN_ELEMENT_THEORY = SGP/SGP4

EPOCH          = 2026-01-01T06:53:13.307712
MEAN_MOTION    = 15.54466618
ECCENTRICITY   = .0003353
INCLINATION    = 51.6310
RA_OF_ASC_NODE = 45.0708
ARG_OF_PERICENTER = 323.5635
MEAN_ANOMALY   = 36.5127

EPHEMERIS_TYPE = 0
CLASSIFICATION_TYPE = U
NORAD_CAT_ID   = 66910
ELEMENT_SET_NO = 999
REV_AT_EPOCH   = 465
BSTAR          = .13687656E-2
MEAN_MOTION_DOT = .92338E-3
MEAN_MOTION_DDOT = 0

CCSDS_OMM_VERS = 2.0
CREATION_DATE  = 
ORIGINATOR     = 

OBJECT_NAME    = 1998-067XX
OBJECT_ID      = 1998-067XX
CENTER_NAME    = EARTH
REF_FRAME      = TEME
TIME_SYSTEM    = UTC
MEAN_ELEMENT_THEORY = SGP/SGP4

EPOCH          = 2025-12-31T09:07:57.753984
MEAN_MOTION    = 15.55033456
ECCENTRICITY   = .00032046
INCLINATION    = 51.6318
RA_OF_ASC_NODE = 49.5181
ARG_OF_PERICENTER = 330.0387
MEAN_ANOMALY   = 30.0420

EPHEMERIS_TYPE = 0
CLASSIFICATION_TYPE = U
NORAD_CAT_ID   = 66911
ELEMENT_SET_NO = 999
REV_AT_EPOCH   = 450
BSTAR          = .16210746E-2
MEAN_MOTION_DOT = .112028E-2
MEAN_MOTION_DDOT = 0

CCSDS_OMM_VERS = 2.0
CREATION_DATE  = 
ORIGINATOR     = 

OBJECT_NAME    = 1998-067XY
OBJECT_ID      = 1998-067XY
CENTER_NAME    = EARTH
REF_FRAME      = TEME
TIME_SYSTEM    = UTC
MEAN_ELEMENT_THEORY = SGP/SGP4

EPOCH          = 2026-01-01T07:13:01.507296
MEAN_MOTION    = 15.53300941
ECCENTRICITY   = .00037796
INCLINATION    = 51.6323
RA_OF_ASC_NODE = 45.1632
ARG_OF_PERICENTER = 336.2240
MEAN_ANOMALY   = 23.8576

EPHEMERIS_TYPE = 0
CLASSIFICATION_TYPE = U
NORAD_CAT_ID   = 66912
ELEMENT_SET_NO = 999
REV_AT_EPOCH   = 464
BSTAR          = .10680576E-2
MEAN_MOTION_DOT = .6874E-3
MEAN_MOTION_DDOT = 0

